CCSDS_OMM_VERS = 2.0
CREATION_DATE  = 
ORIGINATOR     = 

OBJECT_NAME    = H-2A R/B
OBJECT_ID      = 2012-025E
CENTER_NAME    = EARTH
REF_FRAME      = TEME
TIME_SYSTEM    = UTC
MEAN_ELEMENT_THEORY = SGP/SGP4

EPOCH          = 2025-11-05T19:26:11.314752
MEAN_MOTION    = 14.94037826
ECCENTRICITY   = .00456192
INCLINATION    = 98.4534
RA_OF_ASC_NODE = 262.2154
ARG_OF_PERICENTER = 359.8620
MEAN_ANOMALY   = 0.2577

EPHEMERIS_TYPE = 0
CLASSIFICATION_TYPE = U
NORAD_CAT_ID   = 38341
ELEMENT_SET_NO = 999
REV_AT_EPOCH   = 72971
BSTAR          = .44998843E-3
MEAN_MOTION_DOT = .4833E-4
MEAN_MOTION_DDOT = 0

CCSDS_OMM_VERS = 2.0
CREATION_DATE  = 
ORIGINATOR     = 

OBJECT_NAME    = SHIJIAN-16 (SJ-16)
OBJECT_ID      = 2013-057A
CENTER_NAME    = EARTH
REF_FRAME      = TEME
TIME_SYSTEM    = UTC
MEAN_ELEMENT_THEORY = SGP/SGP4

EPOCH          = 2025-11-05T23:43:01.616160
MEAN_MOTION    = 14.91784077
ECCENTRICITY   = .0016172
INCLINATION    = 74.9742
RA_OF_ASC_NODE = 59.1802
ARG_OF_PERICENTER = 50.0105
MEAN_ANOMALY   = 310.2500

EPHEMERIS_TYPE = 0
CLASSIFICATION_TYPE = U
NORAD_CAT_ID   = 39358
ELEMENT_SET_NO = 999
REV_AT_EPOCH   = 65305
BSTAR          = .28923624E-3
MEAN_MOTION_DOT = .2895E-4
MEAN_MOTION_DDOT = 0

CCSDS_OMM_VERS = 2.0
CREATION_DATE  = 
ORIGINATOR     = 

OBJECT_NAME    = SL-4 R/B
OBJECT_ID      = 2014-021B
CENTER_NAME    = EARTH
REF_FRAME      = TEME
TIME_SYSTEM    = UTC
MEAN_ELEMENT_THEORY = SGP/SGP4

EPOCH          = 2025-11-05T18:58:40.301472
MEAN_MOTION    = 15.35254316
ECCENTRICITY   = .0104738
INCLINATION    = 51.6073
RA_OF_ASC_NODE = 219.9830
ARG_OF_PERICENTER = 13.1946
MEAN_ANOMALY   = 347.1739

EPHEMERIS_TYPE = 0
CLASSIFICATION_TYPE = U
NORAD_CAT_ID   = 39679
ELEMENT_SET_NO = 999
REV_AT_EPOCH   = 63721
BSTAR          = .43445454E-3
MEAN_MOTION_DOT = .17709E-3
MEAN_MOTION_DDOT = 0

CCSDS_OMM_VERS = 2.0
CREATION_DATE  = 
ORIGINATOR     = 

OBJECT_NAME    = ALOS-2
OBJECT_ID      = 2014-029A
CENTER_NAME    = EARTH
REF_FRAME      = TEME
TIME_SYSTEM    = UTC
MEAN_ELEMENT_THEORY = SGP/SGP4

EPOCH          = 2025-11-05T22:49:04.125216
MEAN_MOTION    = 14.79474266
ECCENTRICITY   = .00012177
INCLINATION    = 97.9238
RA_OF_ASC_NODE = 45.3201
ARG_OF_PERICENTER = 101.6431
MEAN_ANOMALY   = 258.4918

EPHEMERIS_TYPE = 0
CLASSIFICATION_TYPE = U
NORAD_CAT_ID   = 39766
ELEMENT_SET_NO = 999
REV_AT_EPOCH   = 61857
BSTAR          = .3542477E-3
MEAN_MOTION_DOT = .2595E-4
MEAN_MOTION_DDOT = 0

CCSDS_OMM_VERS = 2.0
CREATION_DATE  = 
ORIGINATOR     = 

OBJECT_NAME    = YAOGAN-29
OBJECT_ID      = 2015-069A
CENTER_NAME    = EARTH
REF_FRAME      = TEME
TIME_SYSTEM    = UTC
MEAN_ELEMENT_THEORY = SGP/SGP4

EPOCH          = 2025-11-05T23:25:49.768608
MEAN_MOTION    = 14.82818745
ECCENTRICITY   = .00024929
INCLINATION    = 98.0260
RA_OF_ASC_NODE = 333.0229
ARG_OF_PERICENTER = 59.4792
MEAN_ANOMALY   = 300.6667

EPHEMERIS_TYPE = 0
CLASSIFICATION_TYPE = U
NORAD_CAT_ID   = 41038
ELEMENT_SET_NO = 999
REV_AT_EPOCH   = 53754
BSTAR          = .79216677E-4
MEAN_MOTION_DOT = .587E-5
MEAN_MOTION_DDOT = 0

CCSDS_OMM_VERS = 2.0
CREATION_DATE  = 
ORIGINATOR     = 

OBJECT_NAME    = ASTRO-H (HITOMI)
OBJECT_ID      = 2016-012A
CENTER_NAME    = EARTH
REF_FRAME      = TEME
TIME_SYSTEM    = UTC
MEAN_ELEMENT_THEORY = SGP/SGP4

EPOCH          = 2025-11-05T18:50:06.595584
MEAN_MOTION    = 15.09008427
ECCENTRICITY   = .00098748
INCLINATION    = 30.9996
RA_OF_ASC_NODE = 75.5442
ARG_OF_PERICENTER = 166.3279
MEAN_ANOMALY   = 193.7627

EPHEMERIS_TYPE = 0
CLASSIFICATION_TYPE = U
NORAD_CAT_ID   = 41337
ELEMENT_SET_NO = 999
REV_AT_EPOCH   = 53349
BSTAR          = .23859452E-3
MEAN_MOTION_DOT = .3963E-4
MEAN_MOTION_DDOT = 0

CCSDS_OMM_VERS = 2.0
CREATION_DATE  = 
ORIGINATOR     = 

OBJECT_NAME    = HXMT (HUIYAN)
OBJECT_ID      = 2017-034A
CENTER_NAME    = EARTH
REF_FRAME      = TEME
TIME_SYSTEM    = UTC
MEAN_ELEMENT_THEORY = SGP/SGP4

EPOCH          = 2025-11-05T23:01:58.474848
MEAN_MOTION    = 15.15631857
ECCENTRICITY   = .00328263
INCLINATION    = 43.0153
RA_OF_ASC_NODE = 343.6446
ARG_OF_PERICENTER = 175.3650
MEAN_ANOMALY   = 184.7507

EPHEMERIS_TYPE = 0
CLASSIFICATION_TYPE = U
NORAD_CAT_ID   = 42758
ELEMENT_SET_NO = 999
REV_AT_EPOCH   = 46375
BSTAR          = .38111875E-3
MEAN_MOTION_DOT = .7242E-4
MEAN_MOTION_DDOT = 0

CCSDS_OMM_VERS = 2.0
CREATION_DATE  = 
ORIGINATOR     = 

OBJECT_NAME    = CZ-2C R/B
OBJECT_ID      = 2018-054D
CENTER_NAME    = EARTH
REF_FRAME      = TEME
TIME_SYSTEM    = UTC
MEAN_ELEMENT_THEORY = SGP/SGP4

EPOCH          = 2025-11-05T11:19:20.273952
MEAN_MOTION    = 15.66058911
ECCENTRICITY   = .00246294
INCLINATION    = 35.1358
RA_OF_ASC_NODE = 72.0720
ARG_OF_PERICENTER = 142.3654
MEAN_ANOMALY   = 217.8805

EPHEMERIS_TYPE = 0
CLASSIFICATION_TYPE = U
NORAD_CAT_ID   = 43521
ELEMENT_SET_NO = 999
REV_AT_EPOCH   = 40919
BSTAR          = .74297934E-3
MEAN_MOTION_DOT = .80832E-3
MEAN_MOTION_DDOT = 0

CCSDS_OMM_VERS = 2.0
CREATION_DATE  = 
ORIGINATOR     = 

OBJECT_NAME    = SAOCOM 1A
OBJECT_ID      = 2018-076A
CENTER_NAME    = EARTH
REF_FRAME      = TEME
TIME_SYSTEM    = UTC
MEAN_ELEMENT_THEORY = SGP/SGP4

EPOCH          = 2025-11-05T22:42:31.031136
MEAN_MOTION    = 14.82148979
ECCENTRICITY   = .00013501
INCLINATION    = 97.8871
RA_OF_ASC_NODE = 134.9011
ARG_OF_PERICENTER = 91.2631
MEAN_ANOMALY   = 268.8737

EPHEMERIS_TYPE = 0
CLASSIFICATION_TYPE = U
NORAD_CAT_ID   = 43641
ELEMENT_SET_NO = 999
REV_AT_EPOCH   = 38303
BSTAR          = .79062132E-4
MEAN_MOTION_DOT = .577E-5
MEAN_MOTION_DDOT = 0

CCSDS_OMM_VERS = 2.0
CREATION_DATE  = 
ORIGINATOR     = 

OBJECT_NAME    = H-2A R/B
OBJECT_ID      = 2018-084L
CENTER_NAME    = EARTH
REF_FRAME      = TEME
TIME_SYSTEM    = UTC
MEAN_ELEMENT_THEORY = SGP/SGP4

EPOCH          = 2025-11-05T23:05:25.031328
MEAN_MOTION    = 15.35541560
ECCENTRICITY   = .00293446
INCLINATION    = 98.8797
RA_OF_ASC_NODE = 136.4721
ARG_OF_PERICENTER = 91.0206
MEAN_ANOMALY   = 269.4396

EPHEMERIS_TYPE = 0
CLASSIFICATION_TYPE = U
NORAD_CAT_ID   = 43682
ELEMENT_SET_NO = 999
REV_AT_EPOCH   = 38675
BSTAR          = .59737342E-3
MEAN_MOTION_DOT = .20857E-3
MEAN_MOTION_DDOT = 0

CCSDS_OMM_VERS = 2.0
CREATION_DATE  = 
ORIGINATOR     = 

OBJECT_NAME    = SAOCOM 1B
OBJECT_ID      = 2020-059A
CENTER_NAME    = EARTH
REF_FRAME      = TEME
TIME_SYSTEM    = UTC
MEAN_ELEMENT_THEORY = SGP/SGP4

EPOCH          = 2025-11-05T23:27:33.268896
MEAN_MOTION    = 14.82127830
ECCENTRICITY   = .00013923
INCLINATION    = 97.8858
RA_OF_ASC_NODE = 134.0344
ARG_OF_PERICENTER = 93.0623
MEAN_ANOMALY   = 267.0749

EPHEMERIS_TYPE = 0
CLASSIFICATION_TYPE = U
NORAD_CAT_ID   = 46265
ELEMENT_SET_NO = 999
REV_AT_EPOCH   = 28042
BSTAR          = .60592732E-4
MEAN_MOTION_DOT = .43E-5
MEAN_MOTION_DDOT = 0

CCSDS_OMM_VERS = 2.0
CREATION_DATE  = 
ORIGINATOR     = 

OBJECT_NAME    = CSS (TIANHE)
OBJECT_ID      = 2021-035A
CENTER_NAME    = EARTH
REF_FRAME      = TEME
TIME_SYSTEM    = UTC
MEAN_ELEMENT_THEORY = SGP/SGP4

EPOCH          = 2025-11-05T21:18:58.281120
MEAN_MOTION    = 15.60459509
ECCENTRICITY   = .00059993
INCLINATION    = 41.4669
RA_OF_ASC_NODE = 240.4931
ARG_OF_PERICENTER = 329.5295
MEAN_ANOMALY   = 30.5195

EPHEMERIS_TYPE = 0
CLASSIFICATION_TYPE = U
NORAD_CAT_ID   = 48274
ELEMENT_SET_NO = 999
REV_AT_EPOCH   = 25827
BSTAR          = .42093112E-3
MEAN_MOTION_DOT = .35479E-3
MEAN_MOTION_DDOT = 0

