H-2A R/B                
1 38341U 12025E   25309.80985318  .00004833  00000+0  44999-3 0  9995
2 38341  98.4534 262.2154 0045619 359.8620   0.2577 14.94037826729715
SHIJIAN-16 (SJ-16)      
1 39358U 13057A   25309.98821315  .00002895  00000+0  28924-3 0  9991
2 39358  74.9742  59.1802 0016172  50.0105 310.2500 14.91784077653054
SL-4 R/B                
1 39679U 14021B   25309.79074423  .00017709  00000+0  43445-3 0  9993
2 39679  51.6073 219.9830 0104738  13.1946 347.1739 15.35254316637215
ALOS-2                  
1 39766U 14029A   25309.95074219  .00002595  00000+0  35425-3 0  9995
2 39766  97.9238  45.3201 0001217 101.6431 258.4918 14.79474266618577
YAOGAN-29               
1 41038U 15069A   25309.97627047  .00000587  00000+0  79217-4 0  9997
2 41038  98.0260 333.0229 0002492  59.4792 300.6667 14.82818745537548
ASTRO-H (HITOMI)        
1 41337U 16012A   25309.78479856  .00003963  00000+0  23859-3 0  9991
2 41337  30.9996  75.5442 0009874 166.3279 193.7627 15.09008427533490
HXMT (HUIYAN)           
1 42758U 17034A   25309.95970457  .00007242  00000+0  38112-3 0  9998
2 42758  43.0153 343.6446 0032826 175.3650 184.7507 15.15631857463751
CZ-2C R/B               
1 43521U 18054D   25309.47176243  .00080832  00000+0  74298-3 0  9999
2 43521  35.1358  72.0720 0024629 142.3654 217.8805 15.66058911409194
SAOCOM 1A               
1 43641U 18076A   25309.94619249  .00000577  00000+0  79062-4 0  9999
2 43641  97.8871 134.9011 0001350  91.2631 268.8737 14.82148979383031
H-2A R/B                
1 43682U 18084L   25309.96209527  .00020857  00000+0  59737-3 0  9998
2 43682  98.8797 136.4721 0029344  91.0206 269.4396 15.35541560386750
SAOCOM 1B               
1 46265U 20059A   25309.97746839  .00000430  00000+0  60593-4 0  9994
2 46265  97.8858 134.0344 0001392  93.0623 267.0749 14.82127830280424
CSS (TIANHE)            
1 48274U 21035A   25309.88817455  .00035479  00000+0  42093-3 0  9999
2 48274  41.4669 240.4931 0005999 329.5295  30.5195 15.60459509258278
